{
    "links": {
        "self": "http://www.neowsapp.com/rest/v1/neo/3174198?api_key=iIulBulltgU6a56xZRHN4H3l9WmuAYTsLGpBGhQ2"
    },
    "id": "3174198",
    "neo_reference_id": "3174198",
    "name": "(2004 BB75)",
    "designation": "2004 BB75",
    "nasa_jpl_url": "http://ssd.jpl.nasa.gov/sbdb.cgi?sstr=3174198",
    "absolute_magnitude_h": 23.1,
    "estimated_diameter": {
        "kilometers": {
            "estimated_diameter_min": 0.063760979,
            "estimated_diameter_max": 0.1425738833
        },
        "meters": {
            "estimated_diameter_min": 63.7609789875,
            "estimated_diameter_max": 142.5738833281
        },
        "miles": {
            "estimated_diameter_min": 0.0396192233,
            "estimated_diameter_max": 0.0885912765
        },
        "feet": {
            "estimated_diameter_min": 209.1895703015,
            "estimated_diameter_max": 467.7620993781
        }
    },
    "is_potentially_hazardous_asteroid": false,
    "close_approach_data": [
        {
            "close_approach_date": "2004-01-29",
            "close_approach_date_full": "2004-Jan-29 05:42",
            "epoch_date_close_approach": 1075354920000,
            "relative_velocity": {
                "kilometers_per_second": "10.8690426966",
                "kilometers_per_hour": "39128.5537076765",
                "miles_per_hour": "24312.9616079726"
            },
            "miss_distance": {
                "astronomical": "0.0522248107",
                "lunar": "20.3154513623",
                "kilometers": "7812720.441873209",
                "miles": "4854599.3718159242"
            },
            "orbiting_body": "Earth"
        },
        {
            "close_approach_date": "2132-03-12",
            "close_approach_date_full": "2132-Mar-12 09:42",
            "epoch_date_close_approach": 5118370920000,
            "relative_velocity": {
                "kilometers_per_second": "18.0565064918",
                "kilometers_per_hour": "65003.4233704811",
                "miles_per_hour": "40390.5993715081"
            },
            "miss_distance": {
                "astronomical": "0.4294335086",
                "lunar": "167.0496348454",
                "kilometers": "64242338.193186682",
                "miles": "39918337.9153209316"
            },
            "orbiting_body": "Earth"
        }
    ],
    "orbital_data": {
        "orbit_id": "11",
        "orbit_determination_date": "2017-04-06 09:13:13",
        "first_observation_date": "2004-01-28",
        "last_observation_date": "2004-02-18",
        "data_arc_in_days": 21,
        "observations_used": 42,
        "orbit_uncertainty": "8",
        "minimum_orbit_intersection": ".036069",
        "jupiter_tisserand_invariant": "3.841",
        "epoch_osculation": "2453038.5",
        "eccentricity": ".4466476102443291",
        "semi_major_axis": "1.845735802593942",
        "inclination": "16.57754187591546",
        "ascending_node_longitude": "132.2847769965008",
        "orbital_period": "915.9098543188161",
        "perihelion_distance": "1.021342317222959",
        "perihelion_argument": "358.822051767368",
        "aphelion_distance": "2.670129287964925",
        "perihelion_time": "2453034.170542649379",
        "mean_anomaly": "1.701700924904593",
        "mean_motion": ".3930517815726969",
        "equinox": "J2000",
        "orbit_class": {
            "orbit_class_type": "AMO",
            "orbit_class_description": "Near-Earth asteroid orbits similar to that of 1221 Amor",
            "orbit_class_range": "1.017 AU < q (perihelion) < 1.3 AU"
        }
    },
    "is_sentry_object": false
}